STARLINK-11416 [DTC]    
1 62594U 25008H   25332.82070676  .00294839  00000+0  22145-2 0  9992
2 62594  43.0007  13.8234 0001093 346.8468  13.2371 15.70906614 51254
STARLINK-11535 [DTC]    
1 62595U 25008J   25333.13331277  .00295598  00000+0  22089-2 0  9995
2 62595  42.9991  11.8990 0001377 214.3826 145.6953 15.71025782 51327
STARLINK-11521 [DTC]    
1 62597U 25008L   25333.14924252  .00281909  00000+0  21130-2 0  9996
2 62597  42.9999  12.0267 0001400 248.3104 111.7615 15.70994668 51472
STARLINK-11258 [DTC]    
1 62598U 25008M   25333.15455052  .00268497  00000+0  20232-2 0  9994
2 62598  42.9988  12.0677 0001015 237.3092 122.7678 15.70908520 51475
STARLINK-11529 [DTC]    
1 62599U 25008N   25333.15986041  .00235558  00000+0  17835-2 0  9999
2 62599  42.9994  12.1101 0000694 263.2032  96.8757 15.70896412 51486
STARLINK-32747          
1 62600U 25008P   25333.14525485  .00024176  00000+0  88568-3 0  9996
2 62600  42.9959 126.0775 0000608 269.1023  90.9759 15.27560839 50188
STARLINK-32767          
1 62601U 25008Q   25332.45541253  .00035098  00000+0  12782-2 0  9990
2 62601  43.0008 129.4881 0002555 279.2846  80.7717 15.27595825 50149
STARLINK-32769          
1 62602U 25008R   25332.78619774  .00030238  00000+0  11038-2 0  9995
2 62602  42.9990 127.6674 0001739 271.5492  88.5160 15.27582209 50198
STARLINK-32778          
1 62603U 25008S   25333.15682036  .00028511  00000+0  10413-2 0  9996
2 62603  42.9975 126.1615 0001212 266.6325  93.4387 15.27588530 50185
STARLINK-32710          
1 62604U 25008T   25332.44127966  .00027216  00000+0  99411-3 0  9991
2 62604  43.0068 129.3850 0002902 296.1270  63.9283 15.27603442 50087
STARLINK-32742          
1 62605U 25008U   25332.51051645  .00025801  00000+0  94313-3 0  9994
2 62605  43.0007 129.0343 0001287 235.1354 124.9377 15.27604697 50148
STARLINK-32783          
1 62606U 25008V   25332.79005029  .00036664  00000+0  13344-2 0  9993
2 62606  43.0000 127.7004 0001677 268.8637  91.2023 15.27600561 50130
STARLINK-32784          
1 62607U 25008W   25332.45155725  .00029257  00000+0  10677-2 0  9992
2 62607  43.0034 129.4577 0002307 271.4764  88.5824 15.27602443 50144
STARLINK-32806          
1 62735U 25014A   25333.11450731  .00013700  00000+0  50633-3 0  9993
2 62735  42.9974   2.5734 0000655 301.7481  58.3306 15.27586116 47874
STARLINK-32329          
1 62736U 25014B   25333.09523492  .00040275  00000+0  14639-2 0  9998
2 62736  42.9992   2.4181 0002378 280.9517  79.1067 15.27606846 47870
STARLINK-32774          
1 62737U 25014C   25333.14856808  .00007573  00000+0  28443-3 0  9998
2 62737  43.0003   5.4187 0000922 264.4868  95.5879 15.27582027 47848
