[{"OBJECT_NAME":"STARLINK-11416 [DTC]","OBJECT_ID":"2025-008H","EPOCH":"2025-11-28T19:41:49.064064","MEAN_MOTION":15.70906614,"ECCENTRICITY":0.0001093,"INCLINATION":43.0007,"RA_OF_ASC_NODE":13.8234,"ARG_OF_PERICENTER":346.8468,"MEAN_ANOMALY":13.2371,"EPHEMERIS_TYPE":0,"CLASSIFICATION_TYPE":"U","NORAD_CAT_ID":62594,"ELEMENT_SET_NO":999,"REV_AT_EPOCH":5125,"BSTAR":0.0022145,"MEAN_MOTION_DOT":0.00294839,"MEAN_MOTION_DDOT":0},{"OBJECT_NAME":"STARLINK-11535 [DTC]","OBJECT_ID":"2025-008J","EPOCH":"2025-11-29T03:11:58.223328","MEAN_MOTION":15.71025782,"ECCENTRICITY":0.0001377,"INCLINATION":42.9991,"RA_OF_ASC_NODE":11.899,"ARG_OF_PERICENTER":214.3826,"MEAN_ANOMALY":145.6953,"EPHEMERIS_TYPE":0,"CLASSIFICATION_TYPE":"U","NORAD_CAT_ID":62595,"ELEMENT_SET_NO":999,"REV_AT_EPOCH":5132,"BSTAR":0.0022089,"MEAN_MOTION_DOT":0.00295598,"MEAN_MOTION_DDOT":0},{"OBJECT_NAME":"STARLINK-11521 [DTC]","OBJECT_ID":"2025-008L","EPOCH":"2025-11-29T03:34:54.553728","MEAN_MOTION":15.70994668,"ECCENTRICITY":0.00014,"INCLINATION":42.9999,"RA_OF_ASC_NODE":12.0267,"ARG_OF_PERICENTER":248.3104,"MEAN_ANOMALY":111.7615,"EPHEMERIS_TYPE":0,"CLASSIFICATION_TYPE":"U","NORAD_CAT_ID":62597,"ELEMENT_SET_NO":999,"REV_AT_EPOCH":5147,"BSTAR":0.002113,"MEAN_MOTION_DOT":0.00281909,"MEAN_MOTION_DDOT":0},{"OBJECT_NAME":"STARLINK-11258 [DTC]","OBJECT_ID":"2025-008M","EPOCH":"2025-11-29T03:42:33.164928","MEAN_MOTION":15.7090852,"ECCENTRICITY":0.0001015,"INCLINATION":42.9988,"RA_OF_ASC_NODE":12.0677,"ARG_OF_PERICENTER":237.3092,"MEAN_ANOMALY":122.7678,"EPHEMERIS_TYPE":0,"CLASSIFICATION_TYPE":"U","NORAD_CAT_ID":62598,"ELEMENT_SET_NO":999,"REV_AT_EPOCH":5147,"BSTAR":0.0020232,"MEAN_MOTION_DOT":0.00268497,"MEAN_MOTION_DDOT":0},{"OBJECT_NAME":"STARLINK-11529 [DTC]","OBJECT_ID":"2025-008N","EPOCH":"2025-11-29T03:50:11.939424","MEAN_MOTION":15.70896412,"ECCENTRICITY":6.94e-5,"INCLINATION":42.9994,"RA_OF_ASC_NODE":12.1101,"ARG_OF_PERICENTER":263.2032,"MEAN_ANOMALY":96.8757,"EPHEMERIS_TYPE":0,"CLASSIFICATION_TYPE":"U","NORAD_CAT_ID":62599,"ELEMENT_SET_NO":999,"REV_AT_EPOCH":5148,"BSTAR":0.0017835,"MEAN_MOTION_DOT":0.00235558,"MEAN_MOTION_DDOT":0},{"OBJECT_NAME":"STARLINK-32747","OBJECT_ID":"2025-008P","EPOCH":"2025-11-29T03:29:10.019040","MEAN_MOTION":15.27560839,"ECCENTRICITY":6.08e-5,"INCLINATION":42.9959,"RA_OF_ASC_NODE":126.0775,"ARG_OF_PERICENTER":269.1023,"MEAN_ANOMALY":90.9759,"EPHEMERIS_TYPE":0,"CLASSIFICATION_TYPE":"U","NORAD_CAT_ID":62600,"ELEMENT_SET_NO":999,"REV_AT_EPOCH":5018,"BSTAR":0.00088568,"MEAN_MOTION_DOT":0.00024176,"MEAN_MOTION_DDOT":0},{"OBJECT_NAME":"STARLINK-32767","OBJECT_ID":"2025-008Q","EPOCH":"2025-11-28T10:55:47.642592","MEAN_MOTION":15.27595825,"ECCENTRICITY":0.00025551,"INCLINATION":43.0008,"RA_OF_ASC_NODE":129.4881,"ARG_OF_PERICENTER":279.2846,"MEAN_ANOMALY":80.7717,"EPHEMERIS_TYPE":0,"CLASSIFICATION_TYPE":"U","NORAD_CAT_ID":62601,"ELEMENT_SET_NO":999,"REV_AT_EPOCH":5014,"BSTAR":0.0012782291,"MEAN_MOTION_DOT":0.00035098,"MEAN_MOTION_DDOT":0},{"OBJECT_NAME":"STARLINK-32769","OBJECT_ID":"2025-008R","EPOCH":"2025-11-28T18:52:07.484736","MEAN_MOTION":15.27582209,"ECCENTRICITY":0.0001739,"INCLINATION":42.999,"RA_OF_ASC_NODE":127.6674,"ARG_OF_PERICENTER":271.5492,"MEAN_ANOMALY":88.516,"EPHEMERIS_TYPE":0,"CLASSIFICATION_TYPE":"U","NORAD_CAT_ID":62602,"ELEMENT_SET_NO":999,"REV_AT_EPOCH":5019,"BSTAR":0.0011038,"MEAN_MOTION_DOT":0.00030238,"MEAN_MOTION_DDOT":0},{"OBJECT_NAME":"STARLINK-32778","OBJECT_ID":"2025-008S","EPOCH":"2025-11-29T03:45:49.279104","MEAN_MOTION":15.2758853,"ECCENTRICITY":0.0001212,"INCLINATION":42.9975,"RA_OF_ASC_NODE":126.1615,"ARG_OF_PERICENTER":266.6325,"MEAN_ANOMALY":93.4387,"EPHEMERIS_TYPE":0,"CLASSIFICATION_TYPE":"U","NORAD_CAT_ID":62603,"ELEMENT_SET_NO":999,"REV_AT_EPOCH":5018,"BSTAR":0.0010413,"MEAN_MOTION_DOT":0.00028511,"MEAN_MOTION_DDOT":0},{"OBJECT_NAME":"STARLINK-32710","OBJECT_ID":"2025-008T","EPOCH":"2025-11-28T10:35:26.562624","MEAN_MOTION":15.27603442,"ECCENTRICITY":0.00029026,"INCLINATION":43.0068,"RA_OF_ASC_NODE":129.385,"ARG_OF_PERICENTER":296.127,"MEAN_ANOMALY":63.9283,"EPHEMERIS_TYPE":0,"CLASSIFICATION_TYPE":"U","NORAD_CAT_ID":62604,"ELEMENT_SET_NO":999,"REV_AT_EPOCH":5008,"BSTAR":0.00099410684,"MEAN_MOTION_DOT":0.00027216,"MEAN_MOTION_DDOT":0},{"OBJECT_NAME":"STARLINK-32742","OBJECT_ID":"2025-008U","EPOCH":"2025-11-28T12:15:08.621280","MEAN_MOTION":15.27604697,"ECCENTRICITY":0.00012879,"INCLINATION":43.0007,"RA_OF_ASC_NODE":129.0343,"ARG_OF_PERICENTER":235.1354,"MEAN_ANOMALY":124.9377,"EPHEMERIS_TYPE":0,"CLASSIFICATION_TYPE":"U","NORAD_CAT_ID":62605,"ELEMENT_SET_NO":999,"REV_AT_EPOCH":5014,"BSTAR":0.00094313428,"MEAN_MOTION_DOT":0.00025801,"MEAN_MOTION_DDOT":0},{"OBJECT_NAME":"STARLINK-32783","OBJECT_ID":"2025-008V","EPOCH":"2025-11-28T18:57:40.345056","MEAN_MOTION":15.27600561,"ECCENTRICITY":0.0001677,"INCLINATION":43,"RA_OF_ASC_NODE":127.7004,"ARG_OF_PERICENTER":268.8637,"MEAN_ANOMALY":91.2023,"EPHEMERIS_TYPE":0,"CLASSIFICATION_TYPE":"U","NORAD_CAT_ID":62606,"ELEMENT_SET_NO":999,"REV_AT_EPOCH":5013,"BSTAR":0.0013344,"MEAN_MOTION_DOT":0.00036664,"MEAN_MOTION_DDOT":0},{"OBJECT_NAME":"STARLINK-32784","OBJECT_ID":"2025-008W","EPOCH":"2025-11-28T10:50:14.546400","MEAN_MOTION":15.27602443,"ECCENTRICITY":0.0002307,"INCLINATION":43.0034,"RA_OF_ASC_NODE":129.4577,"ARG_OF_PERICENTER":271.4764,"MEAN_ANOMALY":88.5824,"EPHEMERIS_TYPE":0,"CLASSIFICATION_TYPE":"U","NORAD_CAT_ID":62607,"ELEMENT_SET_NO":999,"REV_AT_EPOCH":5014,"BSTAR":0.0010677374,"MEAN_MOTION_DOT":0.00029257,"MEAN_MOTION_DDOT":0},{"OBJECT_NAME":"STARLINK-32806","OBJECT_ID":"2025-014A","EPOCH":"2025-11-29T02:44:53.431584","MEAN_MOTION":15.27586116,"ECCENTRICITY":6.55e-5,"INCLINATION":42.9974,"RA_OF_ASC_NODE":2.5734,"ARG_OF_PERICENTER":301.7481,"MEAN_ANOMALY":58.3306,"EPHEMERIS_TYPE":0,"CLASSIFICATION_TYPE":"U","NORAD_CAT_ID":62735,"ELEMENT_SET_NO":999,"REV_AT_EPOCH":4787,"BSTAR":0.00050633,"MEAN_MOTION_DOT":0.000137,"MEAN_MOTION_DDOT":0},{"OBJECT_NAME":"STARLINK-32329","OBJECT_ID":"2025-014B","EPOCH":"2025-11-29T02:17:08.297088","MEAN_MOTION":15.27606846,"ECCENTRICITY":0.0002378,"INCLINATION":42.9992,"RA_OF_ASC_NODE":2.4181,"ARG_OF_PERICENTER":280.9517,"MEAN_ANOMALY":79.1067,"EPHEMERIS_TYPE":0,"CLASSIFICATION_TYPE":"U","NORAD_CAT_ID":62736,"ELEMENT_SET_NO":999,"REV_AT_EPOCH":4787,"BSTAR":0.0014639,"MEAN_MOTION_DOT":0.00040275,"MEAN_MOTION_DDOT":0},{"OBJECT_NAME":"STARLINK-32774","OBJECT_ID":"2025-014C","EPOCH":"2025-11-29T03:33:56.282112","MEAN_MOTION":15.27582027,"ECCENTRICITY":9.22e-5,"INCLINATION":43.0003,"RA_OF_ASC_NODE":5.4187,"ARG_OF_PERICENTER":264.4868,"MEAN_ANOMALY":95.5879,"EPHEMERIS_TYPE":0,"CLASSIFICATION_TYPE":"U","NORAD_CAT_ID":62737,"ELEMENT_SET_NO":999,"REV_AT_EPOCH":4784,"BSTAR":0.00028443,"MEAN_MOTION_DOT":7.573e-5,"MEAN_MOTION_DDOT":0}]
